CCSDS_OMM_VERS = 2.0
CREATION_DATE  = 
ORIGINATOR     = 

OBJECT_NAME    = STARLINK-35780
OBJECT_ID      = 2025-288R
CENTER_NAME    = EARTH
REF_FRAME      = TEME
TIME_SYSTEM    = UTC
MEAN_ELEMENT_THEORY = SGP/SGP4

EPOCH          = 2026-01-03T04:00:00.999072
MEAN_MOTION    = 15.40699063
ECCENTRICITY   = .0000684
INCLINATION    = 43.0005
RA_OF_ASC_NODE = 38.6111
ARG_OF_PERICENTER = 281.1568
MEAN_ANOMALY   = 216.3370

EPHEMERIS_TYPE = 0
CLASSIFICATION_TYPE = U
NORAD_CAT_ID   = 66974
ELEMENT_SET_NO = 999
REV_AT_EPOCH   = 527
BSTAR          = -.98459E-3
MEAN_MOTION_DOT = -.41207E-3
MEAN_MOTION_DDOT = 0

CCSDS_OMM_VERS = 2.0
CREATION_DATE  = 
ORIGINATOR     = 

OBJECT_NAME    = STARLINK-35777
OBJECT_ID      = 2025-288S
CENTER_NAME    = EARTH
REF_FRAME      = TEME
TIME_SYSTEM    = UTC
MEAN_ELEMENT_THEORY = SGP/SGP4

EPOCH          = 2026-01-03T04:00:00.999072
MEAN_MOTION    = 15.40763566
ECCENTRICITY   = .0001123
INCLINATION    = 43.0006
RA_OF_ASC_NODE = 38.5795
ARG_OF_PERICENTER = 283.8573
MEAN_ANOMALY   = 226.0602

EPHEMERIS_TYPE = 0
CLASSIFICATION_TYPE = U
NORAD_CAT_ID   = 66975
ELEMENT_SET_NO = 999
REV_AT_EPOCH   = 527
BSTAR          = -.31747E-2
MEAN_MOTION_DOT = -.130941E-2
MEAN_MOTION_DDOT = 0

CCSDS_OMM_VERS = 2.0
CREATION_DATE  = 
ORIGINATOR     = 

OBJECT_NAME    = STARLINK-35772
OBJECT_ID      = 2025-288T
CENTER_NAME    = EARTH
REF_FRAME      = TEME
TIME_SYSTEM    = UTC
MEAN_ELEMENT_THEORY = SGP/SGP4

EPOCH          = 2026-01-03T03:44:39.358176
MEAN_MOTION    = 15.40730893
ECCENTRICITY   = .0001668
INCLINATION    = 43.0013
RA_OF_ASC_NODE = 40.6328
ARG_OF_PERICENTER = 269.7518
MEAN_ANOMALY   = 90.3148

EPHEMERIS_TYPE = 0
CLASSIFICATION_TYPE = U
NORAD_CAT_ID   = 66976
ELEMENT_SET_NO = 999
REV_AT_EPOCH   = 518
BSTAR          = .28584E-2
MEAN_MOTION_DOT = .121137E-2
MEAN_MOTION_DDOT = 0

CCSDS_OMM_VERS = 2.0
CREATION_DATE  = 
ORIGINATOR     = 

OBJECT_NAME    = STARLINK-35770
OBJECT_ID      = 2025-288U
CENTER_NAME    = EARTH
REF_FRAME      = TEME
TIME_SYSTEM    = UTC
MEAN_ELEMENT_THEORY = SGP/SGP4

EPOCH          = 2026-01-01T14:00:43.463232
MEAN_MOTION    = 15.50604727
ECCENTRICITY   = .000113
INCLINATION    = 43.0009
RA_OF_ASC_NODE = 47.6983
ARG_OF_PERICENTER = 275.3451
MEAN_ANOMALY   = 84.7280

EPHEMERIS_TYPE = 0
CLASSIFICATION_TYPE = U
NORAD_CAT_ID   = 66977
ELEMENT_SET_NO = 999
REV_AT_EPOCH   = 496
BSTAR          = .17973E-2
MEAN_MOTION_DOT = .106642E-2
MEAN_MOTION_DDOT = 0

CCSDS_OMM_VERS = 2.0
CREATION_DATE  = 
ORIGINATOR     = 

OBJECT_NAME    = STARLINK-35787
OBJECT_ID      = 2025-288V
CENTER_NAME    = EARTH
REF_FRAME      = TEME
TIME_SYSTEM    = UTC
MEAN_ELEMENT_THEORY = SGP/SGP4

EPOCH          = 2026-01-03T04:00:00.999072
MEAN_MOTION    = 15.40703647
ECCENTRICITY   = .0001551
INCLINATION    = 43.0009
RA_OF_ASC_NODE = 38.6990
ARG_OF_PERICENTER = 253.9646
MEAN_ANOMALY   = 206.2016

EPHEMERIS_TYPE = 0
CLASSIFICATION_TYPE = U
NORAD_CAT_ID   = 66978
ELEMENT_SET_NO = 999
REV_AT_EPOCH   = 527
BSTAR          = -.10629E-2
MEAN_MOTION_DOT = -.4445E-3
MEAN_MOTION_DDOT = 0

CCSDS_OMM_VERS = 2.0
CREATION_DATE  = 
ORIGINATOR     = 

OBJECT_NAME    = STARLINK-36107
OBJECT_ID      = 2025-288W
CENTER_NAME    = EARTH
REF_FRAME      = TEME
TIME_SYSTEM    = UTC
MEAN_ELEMENT_THEORY = SGP/SGP4

EPOCH          = 2026-01-03T03:04:55.813728
MEAN_MOTION    = 15.50625333
ECCENTRICITY   = .0001284
INCLINATION    = 43.0006
RA_OF_ASC_NODE = 38.6462
ARG_OF_PERICENTER = 256.5132
MEAN_ANOMALY   = 103.5585

EPHEMERIS_TYPE = 0
CLASSIFICATION_TYPE = U
NORAD_CAT_ID   = 66979
ELEMENT_SET_NO = 999
REV_AT_EPOCH   = 520
BSTAR          = .28244E-2
MEAN_MOTION_DOT = .169263E-2
MEAN_MOTION_DDOT = 0

CCSDS_OMM_VERS = 2.0
CREATION_DATE  = 
ORIGINATOR     = 

OBJECT_NAME    = STARLINK-36086
OBJECT_ID      = 2025-288X
CENTER_NAME    = EARTH
REF_FRAME      = TEME
TIME_SYSTEM    = UTC
MEAN_ELEMENT_THEORY = SGP/SGP4

EPOCH          = 2026-01-03T04:00:00.999072
MEAN_MOTION    = 15.40640543
ECCENTRICITY   = .0000926
INCLINATION    = 43.0002
RA_OF_ASC_NODE = 38.5170
ARG_OF_PERICENTER = 281.0941
MEAN_ANOMALY   = 253.7399

EPHEMERIS_TYPE = 0
CLASSIFICATION_TYPE = U
NORAD_CAT_ID   = 66980
ELEMENT_SET_NO = 999
REV_AT_EPOCH   = 527
BSTAR          = .12611E-2
MEAN_MOTION_DOT = .52635E-3
MEAN_MOTION_DDOT = 0

CCSDS_OMM_VERS = 2.0
CREATION_DATE  = 
ORIGINATOR     = 

OBJECT_NAME    = STARLINK-36142
OBJECT_ID      = 2025-288Y
CENTER_NAME    = EARTH
REF_FRAME      = TEME
TIME_SYSTEM    = UTC
MEAN_ELEMENT_THEORY = SGP/SGP4

EPOCH          = 2026-01-03T04:00:00.999072
MEAN_MOTION    = 15.43290172
ECCENTRICITY   = .0001063
INCLINATION    = 43.0001
RA_OF_ASC_NODE = 38.4653
ARG_OF_PERICENTER = 273.9577
MEAN_ANOMALY   = 282.9126

EPHEMERIS_TYPE = 0
CLASSIFICATION_TYPE = U
NORAD_CAT_ID   = 66981
ELEMENT_SET_NO = 999
REV_AT_EPOCH   = 527
BSTAR          = -.44929E-1
MEAN_MOTION_DOT = -.184162E-1
MEAN_MOTION_DDOT = 0

CCSDS_OMM_VERS = 2.0
CREATION_DATE  = 
ORIGINATOR     = 

OBJECT_NAME    = STARLINK-36113
OBJECT_ID      = 2025-288Z
CENTER_NAME    = EARTH
REF_FRAME      = TEME
TIME_SYSTEM    = UTC
MEAN_ELEMENT_THEORY = SGP/SGP4

EPOCH          = 2026-01-03T03:03:26.899488
MEAN_MOTION    = 15.50626412
ECCENTRICITY   = .0000978
INCLINATION    = 43.0005
RA_OF_ASC_NODE = 38.6371
ARG_OF_PERICENTER = 259.1722
MEAN_ANOMALY   = 100.9028

EPHEMERIS_TYPE = 0
CLASSIFICATION_TYPE = U
NORAD_CAT_ID   = 66982
ELEMENT_SET_NO = 999
REV_AT_EPOCH   = 520
BSTAR          = .25042E-2
MEAN_MOTION_DOT = .14966E-2
MEAN_MOTION_DDOT = 0

CCSDS_OMM_VERS = 2.0
CREATION_DATE  = 
ORIGINATOR     = 

OBJECT_NAME    = STARLINK-36145
OBJECT_ID      = 2025-288AA
CENTER_NAME    = EARTH
REF_FRAME      = TEME
TIME_SYSTEM    = UTC
MEAN_ELEMENT_THEORY = SGP/SGP4

EPOCH          = 2026-01-03T03:02:27.678336
MEAN_MOTION    = 15.50632052
ECCENTRICITY   = .0000696
INCLINATION    = 43.0004
RA_OF_ASC_NODE = 38.6323
ARG_OF_PERICENTER = 258.4914
MEAN_ANOMALY   = 101.5868

EPHEMERIS_TYPE = 0
CLASSIFICATION_TYPE = U
NORAD_CAT_ID   = 66983
ELEMENT_SET_NO = 999
REV_AT_EPOCH   = 520
BSTAR          = .2771E-2
MEAN_MOTION_DOT = .16603E-2
MEAN_MOTION_DDOT = 0

CCSDS_OMM_VERS = 2.0
CREATION_DATE  = 
ORIGINATOR     = 

OBJECT_NAME    = STARLINK-35591
OBJECT_ID      = 2025-288AB
CENTER_NAME    = EARTH
REF_FRAME      = TEME
TIME_SYSTEM    = UTC
MEAN_ELEMENT_THEORY = SGP/SGP4

EPOCH          = 2026-01-03T03:02:57.296256
MEAN_MOTION    = 15.50629007
ECCENTRICITY   = .0001029
INCLINATION    = 43.0005
RA_OF_ASC_NODE = 38.6345
ARG_OF_PERICENTER = 257.7498
MEAN_ANOMALY   = 102.3247

EPHEMERIS_TYPE = 0
CLASSIFICATION_TYPE = U
NORAD_CAT_ID   = 66984
ELEMENT_SET_NO = 999
REV_AT_EPOCH   = 520
BSTAR          = .27309E-2
MEAN_MOTION_DOT = .163548E-2
MEAN_MOTION_DDOT = 0

CCSDS_OMM_VERS = 2.0
CREATION_DATE  = 
ORIGINATOR     = 

OBJECT_NAME    = STARLINK-36103
OBJECT_ID      = 2025-288AC
CENTER_NAME    = EARTH
REF_FRAME      = TEME
TIME_SYSTEM    = UTC
MEAN_ELEMENT_THEORY = SGP/SGP4

EPOCH          = 2026-01-03T03:01:58.107936
MEAN_MOTION    = 15.50636047
ECCENTRICITY   = .000023
INCLINATION    = 43.0003
RA_OF_ASC_NODE = 38.6287
ARG_OF_PERICENTER = 202.9917
MEAN_ANOMALY   = 157.0933

EPHEMERIS_TYPE = 0
CLASSIFICATION_TYPE = U
NORAD_CAT_ID   = 66985
ELEMENT_SET_NO = 999
REV_AT_EPOCH   = 520
BSTAR          = .29133E-2
MEAN_MOTION_DOT = .1748E-2
MEAN_MOTION_DDOT = 0

