STARLINK-35780          
1 66974U 25288R   26003.16667823 -.00041207  00000+0 -98459-3 0  9990
2 66974  43.0005  38.6111 0000684 281.1568 216.3370 15.40699063  5274
STARLINK-35777          
1 66975U 25288S   26003.16667823 -.00130941  00000+0 -31747-2 0  9991
2 66975  43.0006  38.5795 0001123 283.8573 226.0602 15.40763566  5273
STARLINK-35772          
1 66976U 25288T   26003.15601109  .00121137  00000+0  28584-2 0  9996
2 66976  43.0013  40.6328 0001668 269.7518  90.3148 15.40730893  5188
STARLINK-35770          
1 66977U 25288U   26001.58383638  .00106642  00000+0  17973-2 0  9990
2 66977  43.0009  47.6983 0001130 275.3451  84.7280 15.50604727  4967
STARLINK-35787          
1 66978U 25288V   26003.16667823 -.00044450  00000+0 -10629-2 0  9999
2 66978  43.0009  38.6990 0001551 253.9646 206.2016 15.40703647  5274
STARLINK-36107          
1 66979U 25288W   26003.12842377  .00169263  00000+0  28244-2 0  9995
2 66979  43.0006  38.6462 0001284 256.5132 103.5585 15.50625333  5207
STARLINK-36086          
1 66980U 25288X   26003.16667823  .00052635  00000+0  12611-2 0  9997
2 66980  43.0002  38.5170 0000926 281.0941 253.7399 15.40640543  5270
STARLINK-36142          
1 66981U 25288Y   26003.16667823 -.01841620  00000+0 -44929-1 0  9997
2 66981  43.0001  38.4653 0001063 273.9577 282.9126 15.43290172  5277
STARLINK-36113          
1 66982U 25288Z   26003.12739467  .00149660  00000+0  25042-2 0  9996
2 66982  43.0005  38.6371 0000978 259.1722 100.9028 15.50626412  5204
STARLINK-36145          
1 66983U 25288AA  26003.12670924  .00166030  00000+0  27710-2 0  9993
2 66983  43.0004  38.6323 0000696 258.4914 101.5868 15.50632052  5209
STARLINK-35591          
1 66984U 25288AB  26003.12705204  .00163548  00000+0  27309-2 0  9999
2 66984  43.0005  38.6345 0001029 257.7498 102.3247 15.50629007  5201
STARLINK-36103          
1 66985U 25288AC  26003.12636699  .00174800  00000+0  29133-2 0  9991
2 66985  43.0003  38.6287 0000230 202.9917 157.0933 15.50636047  5207
